CTC1_L_00481001-01
1 10000U 23725MQ  26075.70035880  .00000000  00000+0  00000-0 0  9990
2 10000  49.0000   0.0000 0000000   0.0000   0.0000 15.14992938    18
CTC1_L_00481001-02
1 10001U 22384XG  26075.70035880  .00000000  00000+0  00000-0 0  9991
2 10001  49.0000   0.0000 0000000   0.0000  72.0000 15.14992938    18
CTC1_L_00481001-03
1 10002U 22299DQ  26075.70035880  .00000000  00000+0  00000-0 0  9997
2 10002  49.0000   0.0000 0000000   0.0000 144.0000 15.14992938    19
CTC1_L_00481001-04
1 10003U 24342UC  26075.70035880  .00000000  00000+0  00000-0 0  9999
2 10003  49.0000   0.0000 0000000   0.0000 216.0000 15.14992938    10
CTC1_L_00481001-05
1 10004U 22211TK  26075.70035880  .00000000  00000+0  00000-0 0  9993
2 10004  49.0000   0.0000 0000000   0.0000 288.0000 15.14992938    10
CTC1_L_00481002-01
1 10005U 25145NP  26075.70035880  .00000000  00000+0  00000-0 0  9993
2 10005  49.0000  12.0000 0000000   0.0000   9.6000 15.14992938    11
CTC1_L_00481002-02
1 10006U 26672CU  26075.70035880  .00000000  00000+0  00000-0 0  9990
2 10006  49.0000  12.0000 0000000   0.0000  81.6000 15.14992938    12
CTC1_L_00481002-03
1 10007U 23888KL  26075.70035880  .00000000  00000+0  00000-0 0  9997
2 10007  49.0000  12.0000 0000000   0.0000 153.6000 15.14992938    13
CTC1_L_00481002-04
1 10008U 23879NZ  26075.70035880  .00000000  00000+0  00000-0 0  9998
2 10008  49.0000  12.0000 0000000   0.0000 225.6000 15.14992938    14
CTC1_L_00481002-05
1 10009U 23597GI  26075.70035880  .00000000  00000+0  00000-0 0  9996
2 10009  49.0000  12.0000 0000000   0.0000 297.6000 15.14992938    14
CTC1_L_00481003-01
1 10010U 23886SP  26075.70035880  .00000000  00000+0  00000-0 0  9999
2 10010  49.0000  24.0000 0000000   0.0000  19.2000 15.14992938    17
CTC1_L_00481003-02
1 10011U 25106BY  26075.70035880  .00000000  00000+0  00000-0 0  9997
2 10011  49.0000  24.0000 0000000   0.0000  91.2000 15.14992938    18
CTC1_L_00481003-03
1 10012U 24375VB  26075.70035880  .00000000  00000+0  00000-0 0  9995
2 10012  49.0000  24.0000 0000000   0.0000 163.2000 15.14992938    19
CTC1_L_00481003-04
1 10013U 22651ZG  26075.70035880  .00000000  00000+0  00000-0 0  9991
2 10013  49.0000  24.0000 0000000   0.0000 235.2000 15.14992938    10
CTC1_L_00481003-05
1 10014U 22395FO  26075.70035880  .00000000  00000+0  00000-0 0  9997
2 10014  49.0000  24.0000 0000000   0.0000 307.2000 15.14992938    11
CTC1_L_00481004-01
1 10015U 22108CI  26075.70035880  .00000000  00000+0  00000-0 0  9990
2 10015  49.0000  36.0000 0000000   0.0000  28.8000 15.14992938    11
CTC1_L_00481004-02
1 10016U 22942OL  26075.70035880  .00000000  00000+0  00000-0 0  9997
2 10016  49.0000  36.0000 0000000   0.0000 100.8000 15.14992938    13
CTC1_L_00481004-03
1 10017U 22350EY  26075.70035880  .00000000  00000+0  00000-0 0  9991
2 10017  49.0000  36.0000 0000000   0.0000 172.8000 15.14992938    13
CTC1_L_00481004-04
1 10018U 22692KG  26075.70035880  .00000000  00000+0  00000-0 0  9991
2 10018  49.0000  36.0000 0000000   0.0000 244.8000 15.14992938    14
CTC1_L_00481004-05
1 10019U 25635DJ  26075.70035880  .00000000  00000+0  00000-0 0  9992
2 10019  49.0000  36.0000 0000000   0.0000 316.8000 15.14992938    15
CTC1_L_00481005-01
1 10020U 23135MW  26075.70035880  .00000000  00000+0  00000-0 0  9997
2 10020  49.0000  48.0000 0000000   0.0000  38.4000 15.14992938    17
CTC1_L_00481005-02
1 10021U 25908NT  26075.70035880  .00000000  00000+0  00000-0 0  9998
2 10021  49.0000  48.0000 0000000   0.0000 110.4000 15.14992938    19
CTC1_L_00481005-03
1 10022U 25476WY  26075.70035880  .00000000  00000+0  00000-0 0  9999
2 10022  49.0000  48.0000 0000000   0.0000 182.4000 15.14992938    19
CTC1_L_00481005-04
1 10023U 22633PD  26075.70035880  .00000000  00000+0  00000-0 0  9992
2 10023  49.0000  48.0000 0000000   0.0000 254.4000 15.14992938    10
CTC1_L_00481005-05
1 10024U 24408KD  26075.70035880  .00000000  00000+0  00000-0 0  9995
2 10024  49.0000  48.0000 0000000   0.0000 326.4000 15.14992938    11
CTC1_L_00481006-01
1 10025U 25130PD  26075.70035880  .00000000  00000+0  00000-0 0  9999
2 10025  49.0000  60.0000 0000000   0.0000  48.0000 15.14992938    13
CTC1_L_00481006-02
1 10026U 25591RU  26075.70035880  .00000000  00000+0  00000-0 0  9991
2 10026  49.0000  60.0000 0000000   0.0000 120.0000 15.14992938    15
CTC1_L_00481006-03
1 10027U 26941YK  26075.70035880  .00000000  00000+0  00000-0 0  9992
2 10027  49.0000  60.0000 0000000   0.0000 192.0000 15.14992938    15
CTC1_L_00481006-04
1 10028U 24063QG  26075.70035880  .00000000  00000+0  00000-0 0  9996
2 10028  49.0000  60.0000 0000000   0.0000 264.0000 15.14992938    16
CTC1_L_00481006-05
1 10029U 25236SL  26075.70035880  .00000000  00000+0  00000-0 0  9990
2 10029  49.0000  60.0000 0000000   0.0000 336.0000 15.14992938    17
CTC1_L_00481007-01
1 10030U 25413XE  26075.70035880  .00000000  00000+0  00000-0 0  9999
2 10030  49.0000  72.0000 0000000   0.0000  57.6000 15.14992938    18
CTC1_L_00481007-02
1 10031U 23887I   26075.70035880  .00000000  00000+0  00000-0 0  9993
2 10031  49.0000  72.0000 0000000   0.0000 129.6000 15.14992938    19
CTC1_L_00481007-03
1 10032U 22199LI  26075.70035880  .00000000  00000+0  00000-0 0  9999
2 10032  49.0000  72.0000 0000000   0.0000 201.6000 15.14992938    11
CTC1_L_00481007-04
1 10033U 26319FM  26075.70035880  .00000000  00000+0  00000-0 0  9998
2 10033  49.0000  72.0000 0000000   0.0000 273.6000 15.14992938    11
CTC1_L_00481007-05
1 10034U 24678AN  26075.70035880  .00000000  00000+0  00000-0 0  9995
2 10034  49.0000  72.0000 0000000   0.0000 345.6000 15.14992938    12
CTC1_L_00481008-01
1 10035U 25280IL  26075.70035880  .00000000  00000+0  00000-0 0  9996
2 10035  49.0000  84.0000 0000000   0.0000  67.2000 15.14992938    13
CTC1_L_00481008-02
1 10036U 23905JT  26075.70035880  .00000000  00000+0  00000-0 0  9999
2 10036  49.0000  84.0000 0000000   0.0000 139.2000 15.14992938    14
CTC1_L_00481008-03
1 10037U 25860NR  26075.70035880  .00000000  00000+0  00000-0 0  9992
2 10037  49.0000  84.0000 0000000   0.0000 211.2000 15.14992938    16
CTC1_L_00481008-04
1 10038U 22043WX  26075.70035880  .00000000  00000+0  00000-0 0  9993
2 10038  49.0000  84.0000 0000000   0.0000 283.2000 15.14992938    16
CTC1_L_00481008-05
1 10039U 26550MV  26075.70035880  .00000000  00000+0  00000-0 0  9991
2 10039  49.0000  84.0000 0000000   0.0000 355.2000 15.14992938    17
CTC1_L_00481009-01
1 10040U 25210JZ  26075.70035880  .00000000  00000+0  00000-0 0  9995
2 10040  49.0000  96.0000 0000000   0.0000  76.8000 15.14992938    18
CTC1_L_00481009-02
1 10041U 23315UL  26075.70035880  .00000000  00000+0  00000-0 0  9990
2 10041  49.0000  96.0000 0000000   0.0000 148.8000 15.14992938    19
CTC1_L_00481009-03
1 10042U 26063FD  26075.70035880  .00000000  00000+0  00000-0 0  9994
2 10042  49.0000  96.0000 0000000   0.0000 220.8000 15.14992938    11
CTC1_L_00481009-04
1 10043U 26168UG  26075.70035880  .00000000  00000+0  00000-0 0  9991
2 10043  49.0000  96.0000 0000000   0.0000 292.8000 15.14992938    11
CTC1_L_00481009-05
1 10044U 22848OV  26075.70035880  .00000000  00000+0  00000-0 0  9993
2 10044  49.0000  96.0000 0000000   0.0000   4.8000 15.14992938    13
CTC1_L_00481010-01
1 10045U 25365WH  26075.70035880  .00000000  00000+0  00000-0 0  9991
2 10045  49.0000 108.0000 0000000   0.0000  86.4000 15.14992938    14
CTC1_L_00481010-02
1 10046U 22144QA  26075.70035880  .00000000  00000+0  00000-0 0  9994
2 10046  49.0000 108.0000 0000000   0.0000 158.4000 15.14992938    15
CTC1_L_00481010-03
1 10047U 22698TE  26075.70035880  .00000000  00000+0  00000-0 0  9999
2 10047  49.0000 108.0000 0000000   0.0000 230.4000 15.14992938    17
CTC1_L_00481010-04
1 10048U 25983PW  26075.70035880  .00000000  00000+0  00000-0 0  9990
2 10048  49.0000 108.0000 0000000   0.0000 302.4000 15.14992938    18
CTC1_L_00481010-05
1 10049U 26991DP  26075.70035880  .00000000  00000+0  00000-0 0  9991
2 10049  49.0000 108.0000 0000000   0.0000  14.4000 15.14992938    19
CTC1_L_00481011-01
1 10050U 25215DF  26075.70035880  .00000000  00000+0  00000-0 0  9991
2 10050  49.0000 120.0000 0000000   0.0000  96.0000 15.14992938    11
CTC1_L_00481011-02
1 10051U 23556PF  26075.70035880  .00000000  00000+0  00000-0 0  9998
2 10051  49.0000 120.0000 0000000   0.0000 168.0000 15.14992938    12
CTC1_L_00481011-03
1 10052U 23787NB  26075.70035880  .00000000  00000+0  00000-0 0  9995
2 10052  49.0000 120.0000 0000000   0.0000 240.0000 15.14992938    14
CTC1_L_00481011-04
1 10053U 25841JW  26075.70035880  .00000000  00000+0  00000-0 0  9999
2 10053  49.0000 120.0000 0000000   0.0000 312.0000 15.14992938    15
CTC1_L_00481011-05
1 10054U 25650YF  26075.70035880  .00000000  00000+0  00000-0 0  9998
2 10054  49.0000 120.0000 0000000   0.0000  24.0000 15.14992938    16
CTC1_L_00481012-01
1 10055U 25751BE  26075.70035880  .00000000  00000+0  00000-0 0  9991
2 10055  49.0000 132.0000 0000000   0.0000 105.6000 15.14992938    16
CTC1_L_00481012-02
1 10056U 22007EX  26075.70035880  .00000000  00000+0  00000-0 0  9993
2 10056  49.0000 132.0000 0000000   0.0000 177.6000 15.14992938    16
CTC1_L_00481012-03
1 10057U 25217RT  26075.70035880  .00000000  00000+0  00000-0 0  9990
2 10057  49.0000 132.0000 0000000   0.0000 249.6000 15.14992938    17
CTC1_L_00481012-04
1 10058U 24415BW  26075.70035880  .00000000  00000+0  00000-0 0  9990
2 10058  49.0000 132.0000 0000000   0.0000 321.6000 15.14992938    19
CTC1_L_00481012-05
1 10059U 23581ZO  26075.70035880  .00000000  00000+0  00000-0 0  9994
2 10059  49.0000 132.0000 0000000   0.0000  33.6000 15.14992938    10
CTC1_L_00481013-01
1 10060U 25196MF  26075.70035880  .00000000  00000+0  00000-0 0  9990
2 10060  49.0000 144.0000 0000000   0.0000 115.2000 15.14992938    12
CTC1_L_00481013-02
1 10061U 23726US  26075.70035880  .00000000  00000+0  00000-0 0  9998
2 10061  49.0000 144.0000 0000000   0.0000 187.2000 15.14992938    12
